{
    "links": {
        "self": "http://www.neowsapp.com/rest/v1/neo/3016524?api_key=iIulBulltgU6a56xZRHN4H3l9WmuAYTsLGpBGhQ2"
    },
    "id": "3016524",
    "neo_reference_id": "3016524",
    "name": "(1998 XD12)",
    "designation": "1998 XD12",
    "nasa_jpl_url": "http://ssd.jpl.nasa.gov/sbdb.cgi?sstr=3016524",
    "absolute_magnitude_h": 20.7,
    "estimated_diameter": {
        "kilometers": {
            "estimated_diameter_min": 0.1925550782,
            "estimated_diameter_max": 0.4305662442
        },
        "meters": {
            "estimated_diameter_min": 192.5550781879,
            "estimated_diameter_max": 430.566244241
        },
        "miles": {
            "estimated_diameter_min": 0.1196481415,
            "estimated_diameter_max": 0.2675413778
        },
        "feet": {
            "estimated_diameter_min": 631.7424027221,
            "estimated_diameter_max": 1412.6189567557
        }
    },
    "is_potentially_hazardous_asteroid": true,
    "close_approach_data": [
        {
            "close_approach_date": "1995-05-07",
            "close_approach_date_full": "1995-May-07 00:37",
            "epoch_date_close_approach": 799807020000,
            "relative_velocity": {
                "kilometers_per_second": "22.5519556331",
                "kilometers_per_hour": "81187.0402793029",
                "miles_per_hour": "50446.4695557702"
            },
            "miss_distance": {
                "astronomical": "0.1397604925",
                "lunar": "54.3668315825",
                "kilometers": "20907871.988150975",
                "miles": "12991549.227294455"
            },
            "orbiting_body": "Earth"
        },
        {
            "close_approach_date": "1997-01-21",
            "close_approach_date_full": "1997-Jan-21 10:06",
            "epoch_date_close_approach": 853841160000,
            "relative_velocity": {
                "kilometers_per_second": "20.911942496",
                "kilometers_per_hour": "75282.9929856652",
                "miles_per_hour": "46777.9241693429"
            },
            "miss_distance": {
                "astronomical": "0.0385194765",
                "lunar": "14.9840763585",
                "kilometers": "5762431.637915055",
                "miles": "3580608.984755559"
            },
            "orbiting_body": "Venus"
        },
        {
            "close_approach_date": "1998-12-05",
            "close_approach_date_full": "1998-Dec-05 09:22",
            "epoch_date_close_approach": 912849720000,
            "relative_velocity": {
                "kilometers_per_second": "21.4281054376",
                "kilometers_per_hour": "77141.1795754615",
                "miles_per_hour": "47932.5290534305"
            },
            "miss_distance": {
                "astronomical": "0.0340598365",
                "lunar": "13.2492763985",
                "kilometers": "5095278.992948255",
                "miles": "3166059.554085719"
            },
            "orbiting_body": "Earth"
        },
        {
            "close_approach_date": "2000-04-24",
            "close_approach_date_full": "2000-Apr-24 10:20",
            "epoch_date_close_approach": 956571600000,
            "relative_velocity": {
                "kilometers_per_second": "29.2953401538",
                "kilometers_per_hour": "105463.2245536264",
                "miles_per_hour": "65530.7463900019"
            },
            "miss_distance": {
                "astronomical": "0.3125588337",
                "lunar": "121.5853863093",
                "kilometers": "46758135.771204219",
                "miles": "29054158.3090034622"
            },
            "orbiting_body": "Earth"
        }
    ],
    "orbital_data": {
        "orbit_id": "11",
        "orbit_determination_date": "2017-04-06 09:17:35",
        "first_observation_date": "1998-12-14",
        "last_observation_date": "1998-12-24",
        "data_arc_in_days": 10,
        "observations_used": 60,
        "orbit_uncertainty": "8",
        "minimum_orbit_intersection": ".0321523",
        "jupiter_tisserand_invariant": "4.507",
        "epoch_osculation": "2451166.5",
        "eccentricity": ".6239587858885607",
        "semi_major_axis": "1.398972866053427",
        "inclination": "13.52589324785474",
        "ascending_node_longitude": "259.9825234708298",
        "orbital_period": "604.3831719363695",
        "perihelion_distance": ".5260714550596908",
        "perihelion_argument": "69.27581985909025",
        "aphelion_distance": "2.271874277047164",
        "perihelion_time": "2451101.447935867460",
        "mean_anomaly": "38.74817197951362",
        "mean_motion": ".5956486161694479",
        "equinox": "J2000",
        "orbit_class": {
            "orbit_class_type": "APO",
            "orbit_class_description": "Near-Earth asteroid orbits which cross the Earth’s orbit similar to that of 1862 Apollo",
            "orbit_class_range": "a (semi-major axis) > 1.0 AU; q (perihelion) < 1.017 AU"
        }
    },
    "is_sentry_object": false
}